0 FENGYUN 1C DEB
1 29769U 99025BK  13283.36066948  .00001057  00000-0  74392-3 0  1901
2 29769 099.0777 242.6813 0105262 188.0353 326.0680 13.97700712343242
0 FENGYUN 1C DEB
1 29769U 99025BK  13285.84134826  .00000907  00000-0  64250-3 0  1913
2 29769 099.0779 245.1339 0105429 181.2226 208.1650 13.97706262343595
0 FENGYUN 1C DEB
1 29769U 99025BK  13288.37199190  .00001288  00000-0  89921-3 0  1925
2 29769 099.0781 247.6356 0105634 174.2456 341.7580 13.97713461343943
0 FENGYUN 1C DEB
1 29769U 99025BK  13290.37679743  .00001105  00000-0  77562-3 0  1932
2 29769 099.0783 249.6176 0105789 168.7171 349.5093 13.97718741344223
0 FENGYUN 1C DEB
1 29769U 99025BK  13292.38025655  .00001198  00000-0  83826-3 0  1945
2 29769 099.0783 251.5983 0105949 163.1793 350.5379 13.97722667344500
0 FENGYUN 1C DEB
1 29769U 99025BK  13295.86347598  .00001519  00000-0  10545-2 0  1959
2 29769 099.0780 255.0421 0106214 153.5268 237.5472 13.97731338344995
